[{"OBJECT_NAME":"BISONSAT","OBJECT_ID":"2015-058L","EPOCH":"2026-03-09T11:49:35.353056","MEAN_MOTION":15.13791398,"ECCENTRICITY":0.00792382,"INCLINATION":64.7598,"RA_OF_ASC_NODE":135.3937,"ARG_OF_PERICENTER":90.6713,"MEAN_ANOMALY":270.349,"EPHEMERIS_TYPE":0,"CLASSIFICATION_TYPE":"U","NORAD_CAT_ID":40974,"ELEMENT_SET_NO":999,"REV_AT_EPOCH":10051,"BSTAR":0.0006711096,"MEAN_MOTION_DOT":0.00012971,"MEAN_MOTION_DDOT":0},{"OBJECT_NAME":"STARLINK-36516","OBJECT_ID":"2026-008L","EPOCH":"2026-03-09T10:08:17.691936","MEAN_MOTION":15.27594547,"ECCENTRICITY":0.00020063,"INCLINATION":42.9992,"RA_OF_ASC_NODE":206.5347,"ARG_OF_PERICENTER":299.4788,"MEAN_ANOMALY":60.5863,"EPHEMERIS_TYPE":0,"CLASSIFICATION_TYPE":"U","NORAD_CAT_ID":67455,"ELEMENT_SET_NO":999,"REV_AT_EPOCH":953,"BSTAR":0.00092263854,"MEAN_MOTION_DOT":0.00025226,"MEAN_MOTION_DDOT":0}]
